CCSDS_OMM_VERS = 2.0
CREATION_DATE  = 
ORIGINATOR     = 

OBJECT_NAME    = STARLINK-35856
OBJECT_ID      = 2025-293L
CENTER_NAME    = EARTH
REF_FRAME      = TEME
TIME_SYSTEM    = UTC
MEAN_ELEMENT_THEORY = SGP/SGP4

EPOCH          = 2025-12-21T06:00:00.999648
MEAN_MOTION    = 15.89758335
ECCENTRICITY   = .000427
INCLINATION    = 69.9931
RA_OF_ASC_NODE = 299.0588
ARG_OF_PERICENTER = 275.5785
MEAN_ANOMALY   = 280.2677

EPHEMERIS_TYPE = 0
CLASSIFICATION_TYPE = U
NORAD_CAT_ID   = 67013
ELEMENT_SET_NO = 999
REV_AT_EPOCH   = 148
BSTAR          = -.68151152E-3
MEAN_MOTION_DOT = -.203525E-2
MEAN_MOTION_DDOT = .17391523E-4

CCSDS_OMM_VERS = 2.0
CREATION_DATE  = 
ORIGINATOR     = 

OBJECT_NAME    = STARLINK-36207
OBJECT_ID      = 2025-293M
CENTER_NAME    = EARTH
REF_FRAME      = TEME
TIME_SYSTEM    = UTC
MEAN_ELEMENT_THEORY = SGP/SGP4

EPOCH          = 2025-12-21T06:00:00.999648
MEAN_MOTION    = 15.89777545
ECCENTRICITY   = .00042374
INCLINATION    = 69.9936
RA_OF_ASC_NODE = 299.0561
ARG_OF_PERICENTER = 274.7279
MEAN_ANOMALY   = 283.6612

EPHEMERIS_TYPE = 0
CLASSIFICATION_TYPE = U
NORAD_CAT_ID   = 67014
ELEMENT_SET_NO = 999
REV_AT_EPOCH   = 154
BSTAR          = -.60210226E-3
MEAN_MOTION_DOT = -.180132E-2
MEAN_MOTION_DDOT = .14498138E-4

CCSDS_OMM_VERS = 2.0
CREATION_DATE  = 
ORIGINATOR     = 

OBJECT_NAME    = STARLINK-36093
OBJECT_ID      = 2025-293N
CENTER_NAME    = EARTH
REF_FRAME      = TEME
TIME_SYSTEM    = UTC
MEAN_ELEMENT_THEORY = SGP/SGP4

EPOCH          = 2025-12-21T06:00:00.999648
MEAN_MOTION    = 15.89837387
ECCENTRICITY   = .00042639
INCLINATION    = 69.9932
RA_OF_ASC_NODE = 299.0499
ARG_OF_PERICENTER = 273.1498
MEAN_ANOMALY   = 290.2523

EPHEMERIS_TYPE = 0
CLASSIFICATION_TYPE = U
NORAD_CAT_ID   = 67015
ELEMENT_SET_NO = 999
REV_AT_EPOCH   = 148
BSTAR          = -.6181305E-3
MEAN_MOTION_DOT = -.185449E-2
MEAN_MOTION_DDOT = .15134901E-4

CCSDS_OMM_VERS = 2.0
CREATION_DATE  = 
ORIGINATOR     = 

OBJECT_NAME    = STARLINK-36120
OBJECT_ID      = 2025-293P
CENTER_NAME    = EARTH
REF_FRAME      = TEME
TIME_SYSTEM    = UTC
MEAN_ELEMENT_THEORY = SGP/SGP4

EPOCH          = 2025-12-21T06:00:00.999648
MEAN_MOTION    = 15.89806935
ECCENTRICITY   = .00041862
INCLINATION    = 69.9934
RA_OF_ASC_NODE = 299.0531
ARG_OF_PERICENTER = 273.5107
MEAN_ANOMALY   = 287.2310

EPHEMERIS_TYPE = 0
CLASSIFICATION_TYPE = U
NORAD_CAT_ID   = 67016
ELEMENT_SET_NO = 999
REV_AT_EPOCH   = 148
BSTAR          = -.61021129E-3
MEAN_MOTION_DOT = -.182806E-2
MEAN_MOTION_DDOT = .14815945E-4

CCSDS_OMM_VERS = 2.0
CREATION_DATE  = 
ORIGINATOR     = 

OBJECT_NAME    = STARLINK-35498
OBJECT_ID      = 2025-293Q
CENTER_NAME    = EARTH
REF_FRAME      = TEME
TIME_SYSTEM    = UTC
MEAN_ELEMENT_THEORY = SGP/SGP4

EPOCH          = 2025-12-21T06:00:00.999648
MEAN_MOTION    = 15.89857067
ECCENTRICITY   = .00043455
INCLINATION    = 69.9928
RA_OF_ASC_NODE = 299.0468
ARG_OF_PERICENTER = 274.1547
MEAN_ANOMALY   = 291.7304

EPHEMERIS_TYPE = 0
CLASSIFICATION_TYPE = U
NORAD_CAT_ID   = 67017
ELEMENT_SET_NO = 999
REV_AT_EPOCH   = 167
BSTAR          = -.54986383E-3
MEAN_MOTION_DOT = -.165278E-2
MEAN_MOTION_DDOT = .1284461E-4

CCSDS_OMM_VERS = 2.0
CREATION_DATE  = 
ORIGINATOR     = 

OBJECT_NAME    = STARLINK-36106
OBJECT_ID      = 2025-293R
CENTER_NAME    = EARTH
REF_FRAME      = TEME
TIME_SYSTEM    = UTC
MEAN_ELEMENT_THEORY = SGP/SGP4

EPOCH          = 2025-12-21T06:00:00.999648
MEAN_MOTION    = 15.89884804
ECCENTRICITY   = .00045483
INCLINATION    = 69.9928
RA_OF_ASC_NODE = 299.0436
ARG_OF_PERICENTER = 273.4920
MEAN_ANOMALY   = 294.8975

EPHEMERIS_TYPE = 0
CLASSIFICATION_TYPE = U
NORAD_CAT_ID   = 67018
ELEMENT_SET_NO = 999
REV_AT_EPOCH   = 159
BSTAR          = -.54403888E-3
MEAN_MOTION_DOT = -.163781E-2
MEAN_MOTION_DDOT = .1268759E-4

CCSDS_OMM_VERS = 2.0
CREATION_DATE  = 
ORIGINATOR     = 

OBJECT_NAME    = STARLINK-35688
OBJECT_ID      = 2025-293S
CENTER_NAME    = EARTH
REF_FRAME      = TEME
TIME_SYSTEM    = UTC
MEAN_ELEMENT_THEORY = SGP/SGP4

EPOCH          = 2025-12-21T06:00:00.999648
MEAN_MOTION    = 15.89930570
ECCENTRICITY   = .00042604
INCLINATION    = 69.9926
RA_OF_ASC_NODE = 299.0406
ARG_OF_PERICENTER = 273.0376
MEAN_ANOMALY   = 297.6815

EPHEMERIS_TYPE = 0
CLASSIFICATION_TYPE = U
NORAD_CAT_ID   = 67019
ELEMENT_SET_NO = 999
REV_AT_EPOCH   = 167
BSTAR          = -.63455502E-3
MEAN_MOTION_DOT = -.191233E-2
MEAN_MOTION_DDOT = .15852309E-4

CCSDS_OMM_VERS = 2.0
CREATION_DATE  = 
ORIGINATOR     = 

OBJECT_NAME    = STARLINK-36172
OBJECT_ID      = 2025-293T
CENTER_NAME    = EARTH
REF_FRAME      = TEME
TIME_SYSTEM    = UTC
MEAN_ELEMENT_THEORY = SGP/SGP4

EPOCH          = 2025-12-21T06:00:00.999648
MEAN_MOTION    = 15.89960844
ECCENTRICITY   = .00042109
INCLINATION    = 69.9927
RA_OF_ASC_NODE = 299.0375
ARG_OF_PERICENTER = 274.0051
MEAN_ANOMALY   = 299.6661

EPHEMERIS_TYPE = 0
CLASSIFICATION_TYPE = U
NORAD_CAT_ID   = 67020
ELEMENT_SET_NO = 999
REV_AT_EPOCH   = 159
BSTAR          = -.62384591E-3
MEAN_MOTION_DOT = -.18831E-2
MEAN_MOTION_DDOT = .15497562E-4

CCSDS_OMM_VERS = 2.0
CREATION_DATE  = 
ORIGINATOR     = 

OBJECT_NAME    = STARLINK-36184
OBJECT_ID      = 2025-293U
CENTER_NAME    = EARTH
REF_FRAME      = TEME
TIME_SYSTEM    = UTC
MEAN_ELEMENT_THEORY = SGP/SGP4

EPOCH          = 2025-12-21T06:00:00.999648
MEAN_MOTION    = 15.89984309
ECCENTRICITY   = .00043114
INCLINATION    = 69.9928
RA_OF_ASC_NODE = 299.0339
ARG_OF_PERICENTER = 273.6730
MEAN_ANOMALY   = 302.6955

EPHEMERIS_TYPE = 0
CLASSIFICATION_TYPE = U
NORAD_CAT_ID   = 67021
ELEMENT_SET_NO = 999
REV_AT_EPOCH   = 159
BSTAR          = -.59378856E-3
MEAN_MOTION_DOT = -.179517E-2
MEAN_MOTION_DDOT = .14452896E-4

CCSDS_OMM_VERS = 2.0
CREATION_DATE  = 
ORIGINATOR     = 

OBJECT_NAME    = STARLINK-36209
OBJECT_ID      = 2025-293V
CENTER_NAME    = EARTH
REF_FRAME      = TEME
TIME_SYSTEM    = UTC
MEAN_ELEMENT_THEORY = SGP/SGP4

EPOCH          = 2025-12-21T06:00:00.999648
MEAN_MOTION    = 15.90304315
ECCENTRICITY   = .00038673
INCLINATION    = 69.9926
RA_OF_ASC_NODE = 299.0304
ARG_OF_PERICENTER = 271.3703
MEAN_ANOMALY   = 308.0979

EPHEMERIS_TYPE = 0
CLASSIFICATION_TYPE = U
NORAD_CAT_ID   = 67022
ELEMENT_SET_NO = 999
REV_AT_EPOCH   = 159
BSTAR          = -.42875553E-2
MEAN_MOTION_DOT = -.1302209E-1
MEAN_MOTION_DDOT = .48397106E-3

CCSDS_OMM_VERS = 2.0
CREATION_DATE  = 
ORIGINATOR     = 

OBJECT_NAME    = STARLINK-36191
OBJECT_ID      = 2025-293W
CENTER_NAME    = EARTH
REF_FRAME      = TEME
TIME_SYSTEM    = UTC
MEAN_ELEMENT_THEORY = SGP/SGP4

EPOCH          = 2025-12-21T06:00:00.999648
MEAN_MOTION    = 15.90056472
ECCENTRICITY   = .00042959
INCLINATION    = 69.9925
RA_OF_ASC_NODE = 299.0267
ARG_OF_PERICENTER = 273.6117
MEAN_ANOMALY   = 308.4880

EPHEMERIS_TYPE = 0
CLASSIFICATION_TYPE = U
NORAD_CAT_ID   = 67023
ELEMENT_SET_NO = 999
REV_AT_EPOCH   = 148
BSTAR          = -.64177891E-3
MEAN_MOTION_DOT = -.194624E-2
MEAN_MOTION_DDOT = .16293373E-4

CCSDS_OMM_VERS = 2.0
CREATION_DATE  = 
ORIGINATOR     = 

OBJECT_NAME    = STARLINK-36192
OBJECT_ID      = 2025-293X
CENTER_NAME    = EARTH
REF_FRAME      = TEME
TIME_SYSTEM    = UTC
MEAN_ELEMENT_THEORY = SGP/SGP4

EPOCH          = 2025-12-21T06:00:00.999648
MEAN_MOTION    = 15.90090650
ECCENTRICITY   = .00042067
INCLINATION    = 69.9928
RA_OF_ASC_NODE = 299.0237
ARG_OF_PERICENTER = 274.1004
MEAN_ANOMALY   = 310.9242

EPHEMERIS_TYPE = 0
CLASSIFICATION_TYPE = U
NORAD_CAT_ID   = 67024
ELEMENT_SET_NO = 999
REV_AT_EPOCH   = 159
BSTAR          = -.65582608E-3
MEAN_MOTION_DOT = -.19919E-2
MEAN_MOTION_DDOT = .16879773E-4

