STARLINK-35856          
1 67013U 25293L   25355.25001157 -.00203525  17392-4 -68151-3 0  9998
2 67013  69.9931 299.0588 0004270 275.5785 280.2677 15.89758335  1488
STARLINK-36207          
1 67014U 25293M   25355.25001157 -.00180132  14498-4 -60210-3 0  9999
2 67014  69.9936 299.0561 0004237 274.7279 283.6612 15.89777545  1544
STARLINK-36093          
1 67015U 25293N   25355.25001157 -.00185449  15135-4 -61813-3 0  9995
2 67015  69.9932 299.0499 0004263 273.1498 290.2523 15.89837387  1485
STARLINK-36120          
1 67016U 25293P   25355.25001157 -.00182806  14816-4 -61021-3 0  9996
2 67016  69.9934 299.0531 0004186 273.5107 287.2310 15.89806935  1485
STARLINK-35498          
1 67017U 25293Q   25355.25001157 -.00165278  12845-4 -54986-3 0  9993
2 67017  69.9928 299.0468 0004345 274.1547 291.7304 15.89857067  1676
STARLINK-36106          
1 67018U 25293R   25355.25001157 -.00163781  12688-4 -54404-3 0  9991
2 67018  69.9928 299.0436 0004548 273.4920 294.8975 15.89884804  1592
STARLINK-35688          
1 67019U 25293S   25355.25001157 -.00191233  15852-4 -63456-3 0  9998
2 67019  69.9926 299.0406 0004260 273.0376 297.6815 15.89930570  1675
STARLINK-36172          
1 67020U 25293T   25355.25001157 -.00188310  15498-4 -62385-3 0  9998
2 67020  69.9927 299.0375 0004210 274.0051 299.6661 15.89960844  1598
STARLINK-36184          
1 67021U 25293U   25355.25001157 -.00179517  14453-4 -59379-3 0  9997
2 67021  69.9928 299.0339 0004311 273.6730 302.6955 15.89984309  1594
STARLINK-36209          
1 67022U 25293V   25355.25001157 -.01302209  48397-3 -42876-2 0  9991
2 67022  69.9926 299.0304 0003867 271.3703 308.0979 15.90304315  1596
STARLINK-36191          
1 67023U 25293W   25355.25001157 -.00194624  16293-4 -64178-3 0  9992
2 67023  69.9925 299.0267 0004295 273.6117 308.4880 15.90056472  1485
STARLINK-36192          
1 67024U 25293X   25355.25001157 -.00199190  16880-4 -65583-3 0  9999
2 67024  69.9928 299.0237 0004206 274.1004 310.9242 15.90090650  1597
